{
  "norad_id": 68274,
  "name": "STARLINK-37129",
  "history": [
    {
      "epoch": "2026-04-10T11:54:28.541088Z",
      "apogee_km": 328.42971043795205,
      "perigee_km": 326.70232134105936,
      "latitude_deg": -2.493041337922116e-05,
      "longitude_deg": 160.44108792429742,
      "height_km": 328.4784227460702,
      "semi_major_axis_km": 6705.703015889506,
      "eccentricity": 0.0001288,
      "inclination_deg": 53.1575,
      "raan_deg": 177.7892,
      "arg_perigee_deg": 89.662,
      "mean_anomaly_deg": 270.455,
      "mean_motion_rev_day": 15.81016087
    },
    {
      "epoch": "2026-04-11T13:42:06.234336Z",
      "apogee_km": 328.61735402771956,
      "perigee_km": 326.9650133232626,
      "latitude_deg": -1.3147292693254268e-05,
      "longitude_deg": 127.08862553651359,
      "height_km": 328.52220675386553,
      "semi_major_axis_km": 6705.928183675491,
      "eccentricity": 0.0001232,
      "inclination_deg": 53.1574,
      "raan_deg": 172.4031,
      "arg_perigee_deg": 76.9494,
      "mean_anomaly_deg": 283.1666,
      "mean_motion_rev_day": 15.80936458
    },
    {
      "epoch": "2026-04-13T03:38:00.076992Z",
      "apogee_km": 328.7941843170429,
      "perigee_km": 326.6520643589238,
      "latitude_deg": -8.851350105572971e-06,
      "longitude_deg": -91.36541315238853,
      "height_km": 329.411047262015,
      "semi_major_axis_km": 6705.860124337983,
      "eccentricity": 0.00015972,
      "inclination_deg": 53.1582,
      "raan_deg": 164.4812,
      "arg_perigee_deg": 135.9758,
      "mean_anomaly_deg": 224.1392,
      "mean_motion_rev_day": 15.80960526
    },
    {
      "epoch": "2026-04-14T20:35:58.598304Z",
      "apogee_km": 328.6910968937864,
      "perigee_km": 326.69410083924504,
      "latitude_deg": 6.277953811629968e-06,
      "longitude_deg": 3.904136765913398,
      "height_km": 328.11686510616596,
      "semi_major_axis_km": 6705.829598866516,
      "eccentricity": 0.0001489,
      "inclination_deg": 53.1573,
      "raan_deg": 155.927,
      "arg_perigee_deg": 60.4005,
      "mean_anomaly_deg": 299.7166,
      "mean_motion_rev_day": 15.80971321
    },
    {
      "epoch": "2026-04-15T10:15:17.937216Z",
      "apogee_km": 328.5850919740815,
      "perigee_km": 327.16797719395345,
      "latitude_deg": -4.3309985240532986e-05,
      "longitude_deg": 155.66071589265587,
      "height_km": 328.5389983205645,
      "semi_major_axis_km": 6706.013534584017,
      "eccentricity": 0.00010566,
      "inclination_deg": 53.157,
      "raan_deg": 153.075,
      "arg_perigee_deg": 68.8759,
      "mean_anomaly_deg": 291.2376,
      "mean_motion_rev_day": 15.80906276
    },
    {
      "epoch": "2026-04-16T19:38:05.656128Z",
      "apogee_km": 328.7223045274968,
      "perigee_km": 326.6810472345587,
      "latitude_deg": -3.0638091766882228e-06,
      "longitude_deg": 6.621255089480856,
      "height_km": 328.2475611678012,
      "semi_major_axis_km": 6705.8386758810275,
      "eccentricity": 0.0001522,
      "inclination_deg": 53.1562,
      "raan_deg": 146.1052,
      "arg_perigee_deg": 68.6677,
      "mean_anomaly_deg": 291.4508,
      "mean_motion_rev_day": 15.80968111
    },
    {
      "epoch": "2026-04-17T09:17:25.027008Z",
      "apogee_km": 328.7167836596482,
      "perigee_km": 327.02740584849744,
      "latitude_deg": 8.154792683670564e-07,
      "longitude_deg": 158.37774020961172,
      "height_km": 328.2462855717385,
      "semi_major_axis_km": 6706.009094754072,
      "eccentricity": 0.00012596,
      "inclination_deg": 53.1567,
      "raan_deg": 143.2532,
      "arg_perigee_deg": 49.9407,
      "mean_anomaly_deg": 310.1726,
      "mean_motion_rev_day": 15.80907846
    },
    {
      "epoch": "2026-04-21T20:00:01.999008Z",
      "apogee_km": 352.17193889683494,
      "perigee_km": 350.88926425197496,
      "latitude_deg": 53.31250945636206,
      "longitude_deg": 60.396403892008145,
      "height_km": 357.44289028068187,
      "semi_major_axis_km": 6729.667601574405,
      "eccentricity": 9.53e-05,
      "inclination_deg": 53.16,
      "raan_deg": 121.0302,
      "arg_perigee_deg": 91.7744,
      "mean_anomaly_deg": 357.7937,
      "mean_motion_rev_day": 15.72578528
    },
    {
      "epoch": "2026-04-22T20:00:03.000384Z",
      "apogee_km": 364.667986905376,
      "perigee_km": 363.0728279527784,
      "latitude_deg": -10.834861438291549,
      "longitude_deg": -43.00351849752508,
      "height_km": 367.2205182139519,
      "semi_major_axis_km": 6742.007407429077,
      "eccentricity": 0.0001183,
      "inclination_deg": 53.1597,
      "raan_deg": 116.0957,
      "arg_perigee_deg": 106.8918,
      "mean_anomaly_deg": 239.7171,
      "mean_motion_rev_day": 15.682631
    },
    {
      "epoch": "2026-04-23T14:00:04.000032Z",
      "apogee_km": 367.76144621206186,
      "perigee_km": 366.43209554049827,
      "latitude_deg": -52.54417028776555,
      "longitude_deg": -52.71170691534273,
      "height_km": 385.9903091851388,
      "semi_major_axis_km": 6745.23377087628,
      "eccentricity": 9.854e-05,
      "inclination_deg": 53.1597,
      "raan_deg": 112.4115,
      "arg_perigee_deg": 85.5067,
      "mean_anomaly_deg": 176.2954,
      "mean_motion_rev_day": 15.67138043
    },
    {
      "epoch": "2026-04-24T20:00:01.999008Z",
      "apogee_km": 383.43264204864045,
      "perigee_km": 381.7938361906781,
      "latitude_deg": 49.68906182848151,
      "longitude_deg": 72.00254397044841,
      "height_km": 387.6275177930253,
      "semi_major_axis_km": 6760.750239119659,
      "eccentricity": 0.0001212,
      "inclination_deg": 53.1592,
      "raan_deg": 106.2918,
      "arg_perigee_deg": 79.8299,
      "mean_anomaly_deg": 28.2312,
      "mean_motion_rev_day": 15.61746077
    }
  ]
}